{"type": "FeatureCollection", "features": [ {"type": "Feature", "properties": {"norad_id": 33980, "name": "COSMOS 2251 DEB", "group": "cosmos-2251-debris", "lat": -40.62172212196916, "lon": 45.79918785123445, "alt_km": 711.3533286123484, "timestamp": "2025-12-12T09:49:09.125181+00:00", "meta": {"OBJECT_NAME": "COSMOS 2251 DEB", "OBJECT_ID": "1993-036FP", "EPOCH": "2025-12-11T11:01:22.569600", "MEAN_MOTION": 14.58640756, "ECCENTRICITY": 0.00287631, "INCLINATION": 74.0216, "RA_OF_ASC_NODE": 61.836, "ARG_OF_PERICENTER": 207.3253, "MEAN_ANOMALY": 164.1222, "EPHEMERIS_TYPE": 0, "CLASSIFICATION_TYPE": "U", "NORAD_CAT_ID": 33980, "ELEMENT_SET_NO": 999, "REV_AT_EPOCH": 88776, "BSTAR": 0.0013410839, "MEAN_MOTION_DOT": 6.259e-05, "MEAN_MOTION_DDOT": 0}, "tle": {"line1": "1 33980U 93036FP  25345.45928900  .00006259  00000+0  13411-2 0  9993", "line2": "2 33980  74.0216  61.8360 0028763 207.3253 164.1222 14.58640756887767"}}, "geometry": {"type": "Point", "coordinates": [45.79918785123445, -40.62172212196916]}}, {"type": "Feature", "properties": {"norad_id": 33982, "name": "COSMOS 2251 DEB", "group": "cosmos-2251-debris", "lat": 8.846915181895165, "lon": 178.01830429358168, "alt_km": 724.4826796622565, "timestamp": "2025-12-12T09:49:09.125191+00:00", "meta": {"OBJECT_NAME": "COSMOS 2251 DEB", "OBJECT_ID": "1993-036FR", "EPOCH": "2025-12-12T02:43:19.994304", "MEAN_MOTION": 14.60207723, "ECCENTRICITY": 0.007504, "INCLINATION": 74.071, "RA_OF_ASC_NODE": 1.1291, "ARG_OF_PERICENTER": 45.8034, "MEAN_ANOMALY": 10.3578, "EPHEMERIS_TYPE": 0, "CLASSIFICATION_TYPE": "U", "NORAD_CAT_ID": 33982, "ELEMENT_SET_NO": 999, "REV_AT_EPOCH": 89150, "BSTAR": 0.00061994, "MEAN_MOTION_DOT": 3.08e-05, "MEAN_MOTION_DDOT": 0}, "tle": {"line1": "1 33982U 93036FR  25346.11342586  .00003080  00000+0  61994-3 0  9998", "line2": "2 33982  74.0710   1.1291 0075040  45.8034  10.3578 14.60207723891509"}}, "geometry": {"type": "Point", "coordinates": [178.01830429358168, 8.846915181895165]}}, {"type": "Feature", "properties": {"norad_id": 33983, "name": "COSMOS 2251 DEB", "group": "cosmos-2251-debris", "lat": 62.16796834900465, "lon": -65.1334323492141, "alt_km": 728.2330288965923, "timestamp": "2025-12-12T09:49:09.125202+00:00", "meta": {"OBJECT_NAME": "COSMOS 2251 DEB", "OBJECT_ID": "1993-036FS", "EPOCH": "2025-12-11T22:25:45.660000", "MEAN_MOTION": 14.50665191, "ECCENTRICITY": 0.0021347, "INCLINATION": 74.0494, "RA_OF_ASC_NODE": 148.5579, "ARG_OF_PERICENTER": 251.6343, "MEAN_ANOMALY": 264.1756, "EPHEMERIS_TYPE": 0, "CLASSIFICATION_TYPE": "U", "NORAD_CAT_ID": 33983, "ELEMENT_SET_NO": 999, "REV_AT_EPOCH": 88617, "BSTAR": 0.000894, "MEAN_MOTION_DOT": 3.495e-05, "MEAN_MOTION_DDOT": 0}, "tle": {"line1": "1 33983U 93036FS  25345.93455625  .00003495  00000+0  89400-3 0  9999", "line2": "2 33983  74.0494 148.5579 0021347 251.6343 264.1756 14.50665191886175"}}, "geometry": {"type": "Point", "coordinates": [-65.1334323492141, 62.16796834900465]}}, {"type": "Feature", "properties": {"norad_id": 33984, "name": "COSMOS 2251 DEB", "group": "cosmos-2251-debris", "lat": -19.74660035149799, "lon": 173.6485396082239, "alt_km": 661.6927412377609, "timestamp": "2025-12-12T09:49:09.125212+00:00", "meta": {"OBJECT_NAME": "COSMOS 2251 DEB", "OBJECT_ID": "1993-036FT", "EPOCH": "2025-12-12T02:38:31.452864", "MEAN_MOTION": 14.66355028, "ECCENTRICITY": 0.0023188, "INCLINATION": 74.0099, "RA_OF_ASC_NODE": 348.3175, "ARG_OF_PERICENTER": 186.7205, "MEAN_ANOMALY": 235.6938, "EPHEMERIS_TYPE": 0, "CLASSIFICATION_TYPE": "U", "NORAD_CAT_ID": 33984, "ELEMENT_SET_NO": 999, "REV_AT_EPOCH": 89057, "BSTAR": 0.0012536, "MEAN_MOTION_DOT": 6.928e-05, "MEAN_MOTION_DDOT": 0}, "tle": {"line1": "1 33984U 93036FT  25346.11008626  .00006928  00000+0  12536-2 0  9995", "line2": "2 33984  74.0099 348.3175 0023188 186.7205 235.6938 14.66355028890575"}}, "geometry": {"type": "Point", "coordinates": [173.6485396082239, -19.74660035149799]}}, {"type": "Feature", "properties": {"norad_id": 33986, "name": "COSMOS 2251 DEB", "group": "cosmos-2251-debris", "lat": -51.83690125943592, "lon": 144.64699101839588, "alt_km": 776.9256512801012, "timestamp": "2025-12-12T09:49:09.125222+00:00", "meta": {"OBJECT_NAME": "COSMOS 2251 DEB", "OBJECT_ID": "1993-036FV", "EPOCH": "2025-12-11T23:00:44.932896", "MEAN_MOTION": 14.43198553, "ECCENTRICITY": 0.0040391, "INCLINATION": 74.0368, "RA_OF_ASC_NODE": 304.1231, "ARG_OF_PERICENTER": 16.9522, "MEAN_ANOMALY": 39.6423, "EPHEMERIS_TYPE": 0, "CLASSIFICATION_TYPE": "U", "NORAD_CAT_ID": 33986, "ELEMENT_SET_NO": 999, "REV_AT_EPOCH": 88017, "BSTAR": 0.0012792, "MEAN_MOTION_DOT": 4.319e-05, "MEAN_MOTION_DDOT": 0}, "tle": {"line1": "1 33986U 93036FV  25345.95885339  .00004319  00000+0  12792-2 0  9998", "line2": "2 33986  74.0368 304.1231 0040391  16.9522  39.6423 14.43198553880179"}}, "geometry": {"type": "Point", "coordinates": [144.64699101839588, -51.83690125943592]}}, {"type": "Feature", "properties": {"norad_id": 33990, "name": "COSMOS 2251 DEB", "group": "cosmos-2251-debris", "lat": 39.61976899404245, "lon": -59.668179727933996, "alt_km": 1081.7150795067673, "timestamp": "2025-12-12T09:49:09.125233+00:00", "meta": {"OBJECT_NAME": "COSMOS 2251 DEB", "OBJECT_ID": "1993-036FZ", "EPOCH": "2025-12-11T23:16:43.782816", "MEAN_MOTION": 13.49988698, "ECCENTRICITY": 0.0407533, "INCLINATION": 73.9288, "RA_OF_ASC_NODE": 287.2303, "ARG_OF_PERICENTER": 307.6789, "MEAN_ANOMALY": 115.6909, "EPHEMERIS_TYPE": 0, "CLASSIFICATION_TYPE": "U", "NORAD_CAT_ID": 33990, "ELEMENT_SET_NO": 999, "REV_AT_EPOCH": 82719, "BSTAR": 0.0020899, "MEAN_MOTION_DOT": 2.203e-05, "MEAN_MOTION_DDOT": 0}, "tle": {"line1": "1 33990U 93036FZ  25345.96995119  .00002203  00000+0  20899-2 0  9999", "line2": "2 33990  73.9288 287.2303 0407533 307.6789 115.6909 13.49988698827193"}}, "geometry": {"type": "Point", "coordinates": [-59.668179727933996, 39.61976899404245]}}, {"type": "Feature", "properties": {"norad_id": 33992, "name": "COSMOS 2251 DEB", "group": "cosmos-2251-debris", "lat": 58.65136495941167, "lon": 6.426391386229502, "alt_km": 636.806405138841, "timestamp": "2025-12-12T09:49:09.125243+00:00", "meta": {"OBJECT_NAME": "COSMOS 2251 DEB", "OBJECT_ID": "1993-036GB", "EPOCH": "2025-12-12T01:37:49.786176", "MEAN_MOTION": 14.66205168, "ECCENTRICITY": 0.0051633, "INCLINATION": 74.0244, "RA_OF_ASC_NODE": 339.0324, "ARG_OF_PERICENTER": 97.1041, "MEAN_ANOMALY": 325.7337, "EPHEMERIS_TYPE": 0, "CLASSIFICATION_TYPE": "U", "NORAD_CAT_ID": 33992, "ELEMENT_SET_NO": 999, "REV_AT_EPOCH": 89115, "BSTAR": 0.0011989, "MEAN_MOTION_DOT": 6.707e-05, "MEAN_MOTION_DDOT": 0}, "tle": {"line1": "1 33992U 93036GB  25346.06793734  .00006707  00000+0  11989-2 0  9995", "line2": "2 33992  74.0244 339.0324 0051633  97.1041 325.7337 14.66205168891156"}}, "geometry": {"type": "Point", "coordinates": [6.426391386229502, 58.65136495941167]}}, {"type": "Feature", "properties": {"norad_id": 33994, "name": "COSMOS 2251 DEB", "group": "cosmos-2251-debris", "lat": 5.257478610403481, "lon": -167.46944395376585, "alt_km": 743.503195260615, "timestamp": "2025-12-12T09:49:09.125253+00:00", "meta": {"OBJECT_NAME": "COSMOS 2251 DEB", "OBJECT_ID": "1993-036GD", "EPOCH": "2025-12-12T00:29:46.091904", "MEAN_MOTION": 14.41213978, "ECCENTRICITY": 0.002364, "INCLINATION": 74.0417, "RA_OF_ASC_NODE": 191.7404, "ARG_OF_PERICENTER": 326.1705, "MEAN_ANOMALY": 184.5728, "EPHEMERIS_TYPE": 0, "CLASSIFICATION_TYPE": "U", "NORAD_CAT_ID": 33994, "ELEMENT_SET_NO": 999, "REV_AT_EPOCH": 88409, "BSTAR": 0.00013177, "MEAN_MOTION_DOT": 4e-06, "MEAN_MOTION_DDOT": 0}, "tle": {"line1": "1 33994U 93036GD  25346.02067236  .00000400  00000+0  13177-3 0  9990", "line2": "2 33994  74.0417 191.7404 0023640 326.1705 184.5728 14.41213978884092"}}, "geometry": {"type": "Point", "coordinates": [-167.46944395376585, 5.257478610403481]}}, {"type": "Feature", "properties": {"norad_id": 33995, "name": "COSMOS 2251 DEB", "group": "cosmos-2251-debris", "lat": 73.99090391514476, "lon": -155.15448627138827, "alt_km": 738.2788984711642, "timestamp": "2025-12-12T09:49:09.125263+00:00", "meta": {"OBJECT_NAME": "COSMOS 2251 DEB", "OBJECT_ID": "1993-036GE", "EPOCH": "2025-12-11T09:58:47.980704", "MEAN_MOTION": 14.34763162, "ECCENTRICITY": 0.00602227, "INCLINATION": 74.0611, "RA_OF_ASC_NODE": 121.7736, "ARG_OF_PERICENTER": 136.5517, "MEAN_ANOMALY": 224.0405, "EPHEMERIS_TYPE": 0, "CLASSIFICATION_TYPE": "U", "NORAD_CAT_ID": 33995, "ELEMENT_SET_NO": 999, "REV_AT_EPOCH": 87500, "BSTAR": 0.0018313338, "MEAN_MOTION_DOT": 5.277e-05, "MEAN_MOTION_DDOT": 0}, "tle": {"line1": "1 33995U 93036GE  25345.41583311  .00005277  00000+0  18313-2 0  9993", "line2": "2 33995  74.0611 121.7736 0060222 136.5517 224.0405 14.34763162875001"}}, "geometry": {"type": "Point", "coordinates": [-155.15448627138827, 73.99090391514476]}}, {"type": "Feature", "properties": {"norad_id": 33999, "name": "COSMOS 2251 DEB", "group": "cosmos-2251-debris", "lat": -9.29423287335396, "lon": 54.14252469098558, "alt_km": 608.0060207710085, "timestamp": "2025-12-12T09:49:09.125274+00:00", "meta": {"OBJECT_NAME": "COSMOS 2251 DEB", "OBJECT_ID": "1993-036GJ", "EPOCH": "2025-12-12T02:29:48.274080", "MEAN_MOTION": 14.83343057, "ECCENTRICITY": 0.0044516, "INCLINATION": 73.9187, "RA_OF_ASC_NODE": 232.0448, "ARG_OF_PERICENTER": 127.8339, "MEAN_ANOMALY": 232.6881, "EPHEMERIS_TYPE": 0, "CLASSIFICATION_TYPE": "U", "NORAD_CAT_ID": 33999, "ELEMENT_SET_NO": 999, "REV_AT_EPOCH": 89241, "BSTAR": 0.0021168, "MEAN_MOTION_DOT": 0.00017663, "MEAN_MOTION_DDOT": 0}, "tle": {"line1": "1 33999U 93036GJ  25346.10403095  .00017663  00000+0  21168-2 0  9998", "line2": "2 33999  73.9187 232.0448 0044516 127.8339 232.6881 14.83343057892418"}}, "geometry": {"type": "Point", "coordinates": [54.14252469098558, -9.29423287335396]}}]}